[{"OBJECT_NAME":"STARLINK-6197","OBJECT_ID":"2023-078A","EPOCH":"2026-03-09T22:55:29.940960","MEAN_MOTION":15.17018833,"ECCENTRICITY":0.00072438,"INCLINATION":69.9932,"RA_OF_ASC_NODE":349.0269,"ARG_OF_PERICENTER":212.47,"MEAN_ANOMALY":147.6024,"EPHEMERIS_TYPE":0,"CLASSIFICATION_TYPE":"U","NORAD_CAT_ID":56767,"ELEMENT_SET_NO":999,"REV_AT_EPOCH":15259,"BSTAR":0.00062350917,"MEAN_MOTION_DOT":0.00012272,"MEAN_MOTION_DDOT":0},{"OBJECT_NAME":"RAY 1.0","OBJECT_ID":"2025-009U","EPOCH":"2026-03-09T20:09:58.488192","MEAN_MOTION":15.20062713,"ECCENTRICITY":0.00072905,"INCLINATION":97.4036,"RA_OF_ASC_NODE":148.9866,"ARG_OF_PERICENTER":261.8547,"MEAN_ANOMALY":98.1862,"EPHEMERIS_TYPE":0,"CLASSIFICATION_TYPE":"U","NORAD_CAT_ID":62627,"ELEMENT_SET_NO":999,"REV_AT_EPOCH":6358,"BSTAR":0.00023774962,"MEAN_MOTION_DOT":5.065e-5,"MEAN_MOTION_DDOT":0}]
